start=new Date('2022-02-08T00:00:00.000Z').valueOf();
sats=[{"LAUNCH_DATE":"2020-08-18","CENTER_NAME":"EARTH","CLASSIFICATION_TYPE":"U","REV_AT_EPOCH":"8285","SEMIMAJOR_AXIS":"6925.395","MEAN_ANOMALY":"265.0515","TLE_LINE1":"1 46161U 20057AW  22038.58492843 -.00003123  00000-0 -19096-3 0  9999","COUNTRY_CODE":"US","BSTAR":"-0.00019096000000","OBJECT_ID":"2020-057AW","PERIAPSIS":"546.456","EPHEMERIS_TYPE":"0","RCS_SIZE":"LARGE","TIME_SYSTEM":"UTC","REF_FRAME":"TEME","RA_OF_ASC_NODE":"150.4418","MEAN_MOTION_DDOT":"0.0000000000000","DECAY_DATE":null,"INCLINATION":"53.0546","OBJECT_TYPE":"PAYLOAD","NORAD_CAT_ID":"46161","FILE":"3294379","EPOCH":"2022-02-07T14:02:17.816352","MEAN_MOTION_DOT":"-0.00003123","GP_ID":"195479084","ELEMENT_SET_NO":"999","ECCENTRICITY":"0.00011610","OBJECT_NAME":"STARLINK-1600","APOAPSIS":"548.064","SITE":"AFETR","TLE_LINE2":"2 46161  53.0546 150.4418 0001161  95.0606 265.0515 15.06384773 82852","MEAN_ELEMENT_THEORY":"SGP4","ARG_OF_PERICENTER":"95.0606","MEAN_MOTION":"15.06384773","PERIOD":"95.593"},{"RA_OF_ASC_NODE":"149.8279","REF_FRAME":"TEME","TIME_SYSTEM":"UTC","RCS_SIZE":"LARGE","EPHEMERIS_TYPE":"0","PERIAPSIS":"546.306","COUNTRY_CODE":"US","BSTAR":"0.00007932000000","OBJECT_ID":"2020-057AX","TLE_LINE1":"1 46162U 20057AX  22038.72130162  .00000900  00000-0  79320-4 0  9994","MEAN_ANOMALY":"278.3341","SEMIMAJOR_AXIS":"6925.383","REV_AT_EPOCH":"8229","CLASSIFICATION_TYPE":"U","LAUNCH_DATE":"2020-08-18","CENTER_NAME":"EARTH","PERIOD":"95.593","MEAN_MOTION":"15.06388698","ARG_OF_PERICENTER":"81.7802","MEAN_ELEMENT_THEORY":"SGP4","TLE_LINE2":"2 46162  53.0561 149.8279 0001361  81.7802 278.3341 15.06388698 82291","SITE":"AFETR","APOAPSIS":"548.191","OBJECT_NAME":"STARLINK-1603","ECCENTRICITY":"0.00013610","GP_ID":"195484336","ELEMENT_SET_NO":"999","MEAN_MOTION_DOT":"0.00000900","EPOCH":"2022-02-07T17:18:40.459968","FILE":"3294387","NORAD_CAT_ID":"46162","OBJECT_TYPE":"PAYLOAD","INCLINATION":"53.0561","MEAN_MOTION_DDOT":"0.0000000000000","DECAY_DATE":null},{"COUNTRY_CODE":"US","BSTAR":"0.00006125300000","OBJECT_ID":"2020-057AY","TLE_LINE1":"1 46163U 20057AY  22038.52042407  .00000631  00000-0  61253-4 0  9994","MEAN_ANOMALY":"286.7852","SEMIMAJOR_AXIS":"6925.397","REV_AT_EPOCH":"8187","CENTER_NAME":"EARTH","LAUNCH_DATE":"2020-08-18","CLASSIFICATION_TYPE":"U","RA_OF_ASC_NODE":"130.7409","REF_FRAME":"TEME","TIME_SYSTEM":"UTC","RCS_SIZE":"LARGE","EPHEMERIS_TYPE":"0","PERIAPSIS":"546.448","ECCENTRICITY":"0.00011750","GP_ID":"195478082","ELEMENT_SET_NO":"999","MEAN_MOTION_DOT":"0.00000631","FILE":"3294379","EPOCH":"2022-02-07T12:29:24.639648","NORAD_CAT_ID":"46163","OBJECT_TYPE":"PAYLOAD","INCLINATION":"53.0531","DECAY_DATE":null,"MEAN_MOTION_DDOT":"0.0000000000000","PERIOD":"95.593","MEAN_MOTION":"15.06384134","ARG_OF_PERICENTER":"73.3266","MEAN_ELEMENT_THEORY":"SGP4","TLE_LINE2":"2 46163  53.0531 130.7409 0001175  73.3266 286.7852 15.06384134 81871","SITE":"AFETR","APOAPSIS":"548.076","OBJECT_NAME":"STARLINK-1610"},{"PERIOD":"95.594","MEAN_MOTION":"15.06372872","ARG_OF_PERICENTER":"88.2173","TLE_LINE2":"2 46164  53.0526 130.1583 0001273  88.2173 271.8962 15.06372872 82553","SITE":"AFETR","APOAPSIS":"548.178","OBJECT_NAME":"STARLINK-1612","MEAN_ELEMENT_THEORY":"SGP4","MEAN_MOTION_DOT":"0.00000986","FILE":"3294393","EPOCH":"2022-02-07T15:35:11.842368","NORAD_CAT_ID":"46164","ECCENTRICITY":"0.00012730","ELEMENT_SET_NO":"999","GP_ID":"195484708","INCLINATION":"53.0526","DECAY_DATE":null,"MEAN_MOTION_DDOT":"0.0000000000000","OBJECT_TYPE":"PAYLOAD","RA_OF_ASC_NODE":"130.1583","RCS_SIZE":"LARGE","EPHEMERIS_TYPE":"0","PERIAPSIS":"546.415","REF_FRAME":"TEME","TIME_SYSTEM":"UTC","BSTAR":"0.00008513400000","COUNTRY_CODE":"US","OBJECT_ID":"2020-057AZ","TLE_LINE1":"1 46164U 20057AZ  22038.64944262  .00000986  00000-0  85134-4 0  9995","MEAN_ANOMALY":"271.8962","SEMIMAJOR_AXIS":"6925.432","REV_AT_EPOCH":"8255","CLASSIFICATION_TYPE":"U","LAUNCH_DATE":"2020-08-18","CENTER_NAME":"EARTH"},{"SEMIMAJOR_AXIS":"6921.791","CLASSIFICATION_TYPE":"U","LAUNCH_DATE":"2020-08-18","CENTER_NAME":"EARTH","REV_AT_EPOCH":"8132","TLE_LINE1":"1 46165U 20057BA  22038.56713593  .00012571  00000-0  83485-3 0  9997","OBJECT_ID":"2020-057BA","COUNTRY_CODE":"US","BSTAR":"0.00083485000000","MEAN_ANOMALY":"228.8853","RCS_SIZE":"LARGE","PERIAPSIS":"542.165","EPHEMERIS_TYPE":"0","REF_FRAME":"TEME","TIME_SYSTEM":"UTC","RA_OF_ASC_NODE":"170.2360","INCLINATION":"53.0515","DECAY_DATE":null,"MEAN_MOTION_DDOT":"0.0000000000000","OBJECT_TYPE":"PAYLOAD","FILE":"3294379","EPOCH":"2022-02-07T13:36:40.544352","MEAN_MOTION_DOT":"0.00012571","NORAD_CAT_ID":"46165","GP_ID":"195479584","ELEMENT_SET_NO":"999","ECCENTRICITY":"0.00021540","APOAPSIS":"545.147","TLE_LINE2":"2 46165  53.0515 170.2360 0002154 131.2322 228.8853 15.07561493 81329","SITE":"AFETR","OBJECT_NAME":"STARLINK-1613","MEAN_ELEMENT_THEORY":"SGP4","MEAN_MOTION":"15.07561493","PERIOD":"95.518","ARG_OF_PERICENTER":"131.2322"},{"MEAN_ELEMENT_THEORY":"SGP4","OBJECT_NAME":"STARLINK-1615","APOAPSIS":"548.349","SITE":"AFETR","TLE_LINE2":"2 46166  53.0543 169.6231 0001584  75.4626 284.6539 15.06387472 82012","ARG_OF_PERICENTER":"75.4626","MEAN_MOTION":"15.06387472","PERIOD":"95.593","OBJECT_TYPE":"PAYLOAD","DECAY_DATE":null,"MEAN_MOTION_DDOT":"0.0000000000000","INCLINATION":"53.0543","GP_ID":"195484394","ELEMENT_SET_NO":"999","ECCENTRICITY":"0.00015840","NORAD_CAT_ID":"46166","EPOCH":"2022-02-07T18:25:01.761600","FILE":"3294394","MEAN_MOTION_DOT":"0.00000656","TIME_SYSTEM":"UTC","REF_FRAME":"TEME","PERIAPSIS":"546.155","EPHEMERIS_TYPE":"0","RCS_SIZE":"LARGE","RA_OF_ASC_NODE":"169.6231","LAUNCH_DATE":"2020-08-18","CLASSIFICATION_TYPE":"U","CENTER_NAME":"EARTH","REV_AT_EPOCH":"8201","SEMIMAJOR_AXIS":"6925.387","MEAN_ANOMALY":"284.6539","TLE_LINE1":"1 46166U 20057BB  22038.76738150  .00000656  00000-0  62926-4 0  9995","BSTAR":"0.00006292600000","COUNTRY_CODE":"US","OBJECT_ID":"2020-057BB"},{"MEAN_ELEMENT_THEORY":"SGP4","OBJECT_NAME":"STARLINK-1626","TLE_LINE2":"2 46167  53.0542 170.7640 0001470  74.2649 285.8502 15.06396098 81314","SITE":"AFETR","APOAPSIS":"548.244","ARG_OF_PERICENTER":"74.2649","PERIOD":"95.592","MEAN_MOTION":"15.06396098","OBJECT_TYPE":"PAYLOAD","MEAN_MOTION_DDOT":"0.0000000000000","DECAY_DATE":null,"INCLINATION":"53.0542","ECCENTRICITY":"0.00014700","ELEMENT_SET_NO":"999","GP_ID":"195478582","NORAD_CAT_ID":"46167","MEAN_MOTION_DOT":"0.00000557","FILE":"3294379","EPOCH":"2022-02-07T12:24:04.744512","TIME_SYSTEM":"UTC","REF_FRAME":"TEME","EPHEMERIS_TYPE":"0","PERIAPSIS":"546.207","RCS_SIZE":"LARGE","RA_OF_ASC_NODE":"170.7640","REV_AT_EPOCH":"8131","CENTER_NAME":"EARTH","LAUNCH_DATE":"2020-08-18","CLASSIFICATION_TYPE":"U","SEMIMAJOR_AXIS":"6925.361","MEAN_ANOMALY":"285.8502","COUNTRY_CODE":"US","BSTAR":"0.00005629400000","OBJECT_ID":"2020-057BC","TLE_LINE1":"1 46167U 20057BC  22038.51672158  .00000557  00000-0  56294-4 0  9995"},{"MEAN_MOTION":"15.06383029","PERIOD":"95.593","ARG_OF_PERICENTER":"75.2906","MEAN_ELEMENT_THEORY":"SGP4","APOAPSIS":"548.232","SITE":"AFETR","TLE_LINE2":"2 46168  53.0544 120.8842 0001396  75.2906 284.8237 15.06383029 82002","OBJECT_NAME":"STARLINK-1627","ELEMENT_SET_NO":"999","GP_ID":"195478834","ECCENTRICITY":"0.00013960","EPOCH":"2022-02-07T11:41:35.083104","FILE":"3294379","MEAN_MOTION_DOT":"-0.00001662","NORAD_CAT_ID":"46168","OBJECT_TYPE":"PAYLOAD","INCLINATION":"53.0544","DECAY_DATE":null,"MEAN_MOTION_DDOT":"0.0000000000000","RA_OF_ASC_NODE":"120.8842","REF_FRAME":"TEME","TIME_SYSTEM":"UTC","RCS_SIZE":"LARGE","PERIAPSIS":"546.299","EPHEMERIS_TYPE":"0","TLE_LINE1":"1 46168U 20057BD  22038.48721161 -.00001662  00000-0 -92774-4 0  9994","BSTAR":"-0.00009277400000","COUNTRY_CODE":"US","OBJECT_ID":"2020-057BD","MEAN_ANOMALY":"284.8237","SEMIMAJOR_AXIS":"6925.401","CLASSIFICATION_TYPE":"U","LAUNCH_DATE":"2020-08-18","CENTER_NAME":"EARTH","REV_AT_EPOCH":"8200"},{"MEAN_MOTION":"15.05578220","PERIOD":"95.644","ARG_OF_PERICENTER":"81.1397","APOAPSIS":"550.730","TLE_LINE2":"2 46169  52.9997 169.4871 0001439  81.1397 278.9754 15.05578220 81984","SITE":"AFETR","OBJECT_NAME":"STARLINK-1628","MEAN_ELEMENT_THEORY":"SGP4","FILE":"3294396","EPOCH":"2022-02-07T19:06:40.404672","MEAN_MOTION_DOT":"0.00001037","NORAD_CAT_ID":"46169","ELEMENT_SET_NO":"999","GP_ID":"195484758","ECCENTRICITY":"0.00014390","INCLINATION":"52.9997","DECAY_DATE":null,"MEAN_MOTION_DDOT":"0.0000000000000","OBJECT_TYPE":"PAYLOAD","RA_OF_ASC_NODE":"169.4871","RCS_SIZE":"LARGE","PERIAPSIS":"548.736","EPHEMERIS_TYPE":"0","REF_FRAME":"TEME","TIME_SYSTEM":"UTC","TLE_LINE1":"1 46169U 20057BE  22038.79630098  .00001037  00000-0  90331-4 0  9998","BSTAR":"0.00009033100000","COUNTRY_CODE":"US","OBJECT_ID":"2020-057BE","MEAN_ANOMALY":"278.9754","SEMIMAJOR_AXIS":"6927.868","LAUNCH_DATE":"2020-08-18","CLASSIFICATION_TYPE":"U","CENTER_NAME":"EARTH","REV_AT_EPOCH":"8198"},{"SEMIMAJOR_AXIS":"6925.418","REV_AT_EPOCH":"8285","LAUNCH_DATE":"2020-08-18","CENTER_NAME":"EARTH","CLASSIFICATION_TYPE":"U","BSTAR":"0.00004598800000","COUNTRY_CODE":"US","OBJECT_ID":"2020-057BG","TLE_LINE1":"1 46171U 20057BG  22038.55913372  .00000403  00000-0  45988-4 0  9998","MEAN_ANOMALY":"291.4420","REF_FRAME":"TEME","TIME_SYSTEM":"UTC","RCS_SIZE":"LARGE","EPHEMERIS_TYPE":"0","PERIAPSIS":"546.171","RA_OF_ASC_NODE":"150.5597","OBJECT_TYPE":"PAYLOAD","INCLINATION":"53.0538","MEAN_MOTION_DDOT":"0.0000000000000","DECAY_DATE":null,"ECCENTRICITY":"0.00016050","GP_ID":"195478332","ELEMENT_SET_NO":"999","MEAN_MOTION_DOT":"0.00000403","EPOCH":"2022-02-07T13:25:09.153408","FILE":"3294379","NORAD_CAT_ID":"46171","MEAN_ELEMENT_THEORY":"SGP4","TLE_LINE2":"2 46171  53.0538 150.5597 0001605  68.6741 291.4420 15.06377429 82850","SITE":"AFETR","APOAPSIS":"548.394","OBJECT_NAME":"STARLINK-1633","PERIOD":"95.594","MEAN_MOTION":"15.06377429","ARG_OF_PERICENTER":"68.6741"}];
